NORAD_CAT_ID,OBJECT_NAME,OBJECT_TYPE,EPOCH,MEAN_MOTION,ECCENTRICITY,INCLINATION,RA_OF_ASC_NODE,ARG_OF_PERICENTER,MEAN_ANOMALY,BSTAR,MEAN_MOTION_DOT,MEAN_MOTION_DDOT,TLE_LINE0,TLE_LINE1,TLE_LINE2,SEMIMAJOR_AXIS,PERIOD,APOGEE,PERIGEE,DECAYED
50200.0,STARLINK-3235,PAYLOAD,2022-09-28 20:27:36,15.08850529,0.0001865,53.2181,125.7781,51.4593,308.6566,0.00010268,1.347e-05,0.0,0 STARLINK-3235,1 50200U 21125AW  22271.85250460  .00001347  00000-0  10268-3 0  9997,2 50200  53.2181 125.7781 0001865  51.4593 308.6566 15.08850529 46857,6917.848000000001,95.437,541.003,538.423,0.0
50200.0,STARLINK-3235,PAYLOAD,2022-09-29 07:35:19,15.08833092,0.0002053,53.2189,123.6965,45.1503,314.9655,2.3944e-05,9.3e-07,0.0,0 STARLINK-3235,1 50200U 21125AW  22272.31620233  .00000093  00000-0  23944-4 0  9991,2 50200  53.2189 123.6965 0002053  45.1503 314.9655 15.08833092 46920,6917.901999999999,95.438,541.187,538.346,0.0
50200.0,STARLINK-3235,PAYLOAD,2022-09-29 20:18:25,15.08819358,0.0001931,53.2173,121.3169,46.1529,313.9623,9.665e-05,1.25e-05,0.0,0 STARLINK-3235,1 50200U 21125AW  22272.84612887  .00001250  00000-0  96650-4 0  9995,2 50200  53.2173 121.3169 0001931  46.1529 313.9623 15.08819358 46515,6917.943,95.439,541.144,538.4730000000002,0.0
50200.0,STARLINK-3235,PAYLOAD,2022-09-29 23:29:11,15.08833334,0.0001874,53.217,120.7222,44.572,315.5423,-4.786600000000001e-05,-1.05e-05,0.0,0 STARLINK-3235,1 50200U 21125AW  22272.97860633 -.00001050  00000-0 -47866-4 0  9998,2 50200  53.2170 120.7222 0001874  44.5720 315.5423 15.08833334 46534,6917.901,95.438,541.062,538.469,0.0
50200.0,STARLINK-3235,PAYLOAD,2022-09-30 07:26:07,15.08832974,0.0001891,53.217,119.2354,44.8601,315.2544,-4.529e-05,-1.009e-05,0.0,0 STARLINK-3235,1 50200U 21125AW  22273.30980819 -.00001009  00000-0 -45290-4 0  9998,2 50200  53.2170 119.2354 0001891  44.8601 315.2544 15.08832974 47073,6917.901999999999,95.438,541.075,538.4590000000002,0.0
50200.0,STARLINK-3235,PAYLOAD,2022-09-30 20:09:11,15.08845745,0.0001893,53.2172,116.8564,44.6092,315.5052,4.2999e-06,-2.2e-06,0.0,0 STARLINK-3235,1 50200U 21125AW  22273.83971791 -.00000220  00000-0  42999-5 0  9992,2 50200  53.2172 116.8564 0001893  44.6092 315.5052 15.08845745 47151,6917.863,95.437,541.0369999999998,538.418,0.0
50200.0,STARLINK-3235,PAYLOAD,2022-09-30 23:19:57,15.08839036,0.0001865,53.2175,116.2608,48.4852,311.63,0.00015734,2.217e-05,0.0,0 STARLINK-3235,1 50200U 21125AW  22273.97219752  .00002217  00000-0  15734-3 0  9991,2 50200  53.2175 116.2608 0001865  48.4852 311.6300 15.08839036 46688,6917.8830000000025,95.438,541.039,538.4580000000002,0.0
50200.0,STARLINK-3235,PAYLOAD,2022-10-01 19:59:58,15.08836116,0.0001806,53.2183,112.3945,42.9105,317.2028,0.00019556,2.825e-05,0.0,0 STARLINK-3235,1 50200U 21125AW  22274.83332058  .00002825  00000-0  19556-3 0  9993,2 50200  53.2183 112.3945 0001806  42.9105 317.2028 15.08836116 46813,6917.892,95.438,541.007,538.508,0.0
50200.0,STARLINK-3235,PAYLOAD,2022-10-02 19:50:44,15.08927261,0.0002203,53.2181,107.9344,27.9093,332.2017,-0.0011244,-0.00018182,0.0,0 STARLINK-3235,1 50200U 21125AW  22275.82690384 -.00018182  00000-0 -11244-2 0  9992,2 50200  53.2181 107.9344 0002203  27.9093 332.2017 15.08927261 46968,6917.614000000001,95.432,541.003,537.955,0.0
50200.0,STARLINK-3235,PAYLOAD,2022-10-03 05:23:04,15.08846081,0.0001938,53.218,106.1508,40.077,320.0365,1.0719e-05,-1.18e-06,0.0,0 STARLINK-3235,1 50200U 21125AW  22276.22435984 -.00000118  00000-0  10719-4 0  9997,2 50200  53.2180 106.1508 0001938  40.0770 320.0365 15.08846081 47021,6917.861999999999,95.437,541.067,538.386,0.0
50200.0,STARLINK-3235,PAYLOAD,2022-10-03 13:19:59,15.08847602,0.0001927,53.2181,104.6638,39.4051,320.7081,9.3056e-05,1.193e-05,0.0,0 STARLINK-3235,1 50200U 21125AW  22276.55555463  .00001193  00000-0  93056-4 0  9996,2 50200  53.2181 104.6638 0001927  39.4051 320.7081 15.08847602 47562,6917.857,95.437,541.055,538.389,0.0
50200.0,STARLINK-3235,PAYLOAD,2022-10-03 19:41:32,15.08843724,0.0001953,53.2183,103.474,40.41,319.7037,6.5395e-05,7.53e-06,0.0,0 STARLINK-3235,1 50200U 21125AW  22276.82051747  .00000753  00000-0  65395-4 0  9998,2 50200  53.2183 103.4740 0001953  40.4100 319.7037 15.08843724 47606,6917.869000000002,95.437,541.085,538.383,0.0
50200.0,STARLINK-3235,PAYLOAD,2022-10-04 05:13:51,15.08847836,0.0002021999999999,53.2188,101.6893,40.9658,319.1485,0.00010495,1.383e-05,0.0,0 STARLINK-3235,1 50200U 21125AW  22277.21795343  .00001383  00000-0  10495-3 0  9999,2 50200  53.2188 101.6893 0002022  40.9658 319.1485 15.08847836 47666,6917.856,95.437,541.12,538.323,0.0
50200.0,STARLINK-3235,PAYLOAD,2022-10-04 19:32:19,15.08839103,0.0001996999999999,53.2182,99.0138,41.9321,318.1824,4.0884e-05,3.63e-06,0.0,0 STARLINK-3235,1 50200U 21125AW  22277.81411993  .00000363  00000-0  40884-4 0  9994,2 50200  53.2182  99.0138 0001997  41.9321 318.1824 15.08839103 47260,6917.8830000000025,95.438,541.13,538.367,0.0
50200.0,STARLINK-3235,PAYLOAD,2022-10-04 22:43:06,15.08835247,0.0001916,53.2176,98.4204,42.1865,317.9274,1.3185e-05,-7.8e-07,0.0,0 STARLINK-3235,1 50200U 21125AW  22277.94660317 -.00000078  00000-0  13185-4 0  9992,2 50200  53.2176  98.4204 0001916  42.1865 317.9274 15.08835247 47774,6917.895,95.438,541.085,538.434,0.0
50200.0,STARLINK-3235,PAYLOAD,2022-10-05 20:58:29,15.088443300000002,0.0001959,53.2169,94.2575,41.9313,318.1829,4.3977e-05,4.12e-06,0.0,0 STARLINK-3235,1 50200U 21125AW  22278.87395781  .00000412  00000-0  43977-4 0  9998,2 50200  53.2169  94.2575 0001959  41.9313 318.1829 15.08844330 47427,6917.8669999999975,95.437,541.087,538.377,0.0
50200.0,STARLINK-3235,PAYLOAD,2022-10-06 11:16:58,15.08835269,0.0002147,53.218,91.5793,45.9512,314.1657,5.5067e-05,5.88e-06,0.0,0 STARLINK-3235,1 50200U 21125AW  22279.47012491  .00000588  00000-0  55067-4 0  9996,2 50200  53.2180  91.5793 0002147  45.9512 314.1657 15.08835269 48008,6917.895,95.438,541.245,538.275,0.0
50200.0,STARLINK-3235,PAYLOAD,2022-10-06 19:13:53,15.08841474,0.0002026999999999,53.2178,90.0941,44.7451,315.3704,0.00013519,1.864e-05,0.0,0 STARLINK-3235,1 50200U 21125AW  22279.80131878  .00001864  00000-0  13519-3 0  9997,2 50200  53.2178  90.0941 0002027  44.7451 315.3704 15.08841474 48056,6917.876,95.437,541.143,538.339,0.0
50200.0,STARLINK-3235,PAYLOAD,2022-10-07 11:07:45,15.08843049,0.0001754999999999,53.218,87.1205,47.6039,312.5101,0.00014655,2.045e-05,0.0,0 STARLINK-3235,1 50200U 21125AW  22280.46371706  .00002045  00000-0  14655-3 0  9991,2 50200  53.2180  87.1205 0001755  47.6039 312.5101 15.08843049 47666,6917.871,95.437,540.95,538.5219999999998,0.0
50200.0,STARLINK-3235,PAYLOAD,2022-10-07 17:29:17,15.088444099999998,0.0002078,53.2177,85.9317,44.6946,315.4213,7.2692e-05,8.69e-06,0.0,0 STARLINK-3235,1 50200U 21125AW  22280.72867889  .00000869  00000-0  72692-4 0  9990,2 50200  53.2177  85.9317 0002078  44.6946 315.4213 15.08844410 48193,6917.8669999999975,95.437,541.169,538.294,0.0
50200.0,STARLINK-3235,PAYLOAD,2022-10-08 04:37:00,15.08839439,0.0002049,53.2179,83.8499,46.3763,313.7399,-1.4525e-05,-5.19e-06,0.0,0 STARLINK-3235,1 50200U 21125AW  22281.19236347 -.00000519  00000-0 -14525-4 0  9996,2 50200  53.2179  83.8499 0002049  46.3763 313.7399 15.08839439 48266,6917.882,95.438,541.165,538.33,0.0
50200.0,STARLINK-3235,PAYLOAD,2022-10-08 17:20:05,15.0883524,0.0001986999999999,53.2182,81.4708,40.1119,320.0019,1.1881e-05,-9.9e-07,0.0,0 STARLINK-3235,1 50200U 21125AW  22281.72228631 -.00000099  00000-0  11881-4 0  9996,2 50200  53.2182  81.4708 0001987  40.1119 320.0019 15.08835240 48349,6917.895,95.438,541.135,538.385,0.0
50200.0,STARLINK-3235,PAYLOAD,2022-10-09 17:10:51,15.08846177,0.0002044999999999,53.2184,77.0093,39.4948,320.6193,7.176699999999999e-05,8.54e-06,0.0,0 STARLINK-3235,1 50200U 21125AW  22282.71587440  .00000854  00000-0  71767-4 0  9999,2 50200  53.2184  77.0093 0002045  39.4948 320.6193 15.08846177 48492,6917.861999999999,95.437,541.141,538.312,0.0
50200.0,STARLINK-3235,PAYLOAD,2022-10-10 17:01:38,15.08833254,0.0001861,53.2185,72.5488,33.2569,326.8540000000001,0.0001893,2.725e-05,0.0,0 STARLINK-3235,1 50200U 21125AW  22283.70947916  .00002725  00000-0  18930-3 0  9998,2 50200  53.2185  72.5488 0001861  33.2569 326.8540 15.08833254 48640,6917.901,95.438,541.053,538.479,0.0
50200.0,STARLINK-3235,PAYLOAD,2022-10-11 12:06:17,15.08826884,0.0002188,53.2195,68.9792,35.3547,324.759,-8.8675e-05,-1.699e-05,0.0,0 STARLINK-3235,1 50200U 21125AW  22284.50437098 -.00001699  00000-0 -88675-4 0  9997,2 50200  53.2195  68.9792 0002188  35.3547 324.7590 15.08826884 48272,6917.92,95.438,541.299,538.2719999999998,0.0
50200.0,STARLINK-3235,PAYLOAD,2022-10-12 04:00:08,15.08834101,0.0002190999999999,53.2186,66.0086,36.2378,323.8762,4.9324e-06,-2.1e-06,0.0,0 STARLINK-3235,1 50200U 21125AW  22285.16676735 -.00000210  00000-0  49324-5 0  9999,2 50200  53.2186  66.0086 0002191  36.2378 323.8762 15.08834101 48376,6917.898,95.438,541.279,538.248,0.0
50200.0,STARLINK-3235,PAYLOAD,2022-10-12 11:57:04,15.08837985,0.0002433,53.2176,64.5211,46.5011,313.6183,-0.0001312,-2.376e-05,0.0,0 STARLINK-3235,1 50200U 21125AW  22285.49797378 -.00002376  00000-0 -13120-3 0  9991,2 50200  53.2176  64.5211 0002433  46.5011 313.6183 15.08837985 48912,6917.887,95.438,541.435,538.068,0.0
50200.0,STARLINK-3235,PAYLOAD,2022-10-13 11:47:51,15.08836825,0.0002334999999999,53.2186,60.0607,37.0342,323.0811,0.00020105,2.913e-05,0.0,0 STARLINK-3235,1 50200U 21125AW  22286.49156654  .00002913  00000-0  20105-3 0  9994,2 50200  53.2186  60.0607 0002335  37.0342 323.0811 15.08836825 48573,6917.89,95.438,541.37,538.14,0.0
50200.0,STARLINK-3235,PAYLOAD,2022-10-14 03:41:42,15.08846177,0.0002346999999999,53.2186,57.087,37.2736,322.8419,0.00024024,3.538e-05,0.0,0 STARLINK-3235,1 50200U 21125AW  22287.15396002  .00003538  00000-0  24024-3 0  9999,2 50200  53.2186  57.0870 0002347  37.2736 322.8419 15.08846177 48676,6917.861999999999,95.437,541.35,538.1030000000002,0.0
